ONEWEB-0366             
1 49292U 21090P   25343.44590282 -.00000155  00000+0 -45377-3 0  9990
2 49292  87.8981 327.5215 0001744  87.9837 272.1493 13.14502926202636
ONEWEB-0367             
1 49293U 21090Q   25343.61956956  .00000161  00000+0  36416-3 0  9993
2 49293  87.9202 312.2415 0001838  76.7835 283.3504 13.20770922204803
ONEWEB-0368             
1 49294U 21090R   25343.44123182  .00000059  00000+0  11393-3 0  9995
2 49294  87.9194 312.3071 0002551  92.3217 267.8209 13.20770409205938
ONEWEB-0369             
1 49295U 21090S   25343.48834793  .00000061  00000+0  12023-3 0  9991
2 49295  87.9197 342.7238 0001881  87.7016 272.4332 13.19723738201390
ONEWEB-0370             
1 49296U 21090T   25343.62903456  .00000099  00000+0  21072-3 0  9996
2 49296  87.9192 312.2447 0001588  75.9492 284.1818 13.20770218204840
ONEWEB-0371             
1 49297U 21090U   25343.49625007  .00000060  00000+0  11831-3 0  9995
2 49297  87.9199 342.7096 0001795  85.6067 274.5271 13.19724122201431
ONEWEB-0372             
1 49298U 21090V   25343.61783839  .00000120  00000+0  26327-3 0  9991
2 49298  87.9190 312.2468 0001924  82.2885 277.8466 13.20770188204815
ONEWEB-0373             
1 49299U 21090W   25343.41753047  .00000143  00000+0  31927-3 0  9995
2 49299  87.9189 312.2999 0001706  85.3600 274.7728 13.20774103205976
ONEWEB-0374             
1 49300U 21090X   25343.50931697  .00000024  00000+0  30556-4 0  9993
2 49300  87.8990 327.4866 0002048 101.4268 258.7092 13.14504782202643
ONEWEB-0375             
1 49301U 21090Y   25343.48067534  .00000130  00000+0  28777-3 0  9990
2 49301  87.9188 312.2678 0001667 102.0655 258.0665 13.20768481205489
ONEWEB-0376             
1 49302U 21090Z   25343.49465827  .00000090  00000+0  19188-3 0  9990
2 49302  87.9205 342.6974 0001970  84.5309 275.6048 13.19727108201433
ONEWEB-0377             
1 49303U 21090AA  25343.61811004  .00000051  00000+0  92677-4 0  9999
2 49303  87.9199 312.2412 0001599  84.3755 275.7560 13.20773704205491
ONEWEB-0378             
1 49304U 21090AB  25343.41295259  .00000101  00000+0  21541-3 0  9993
2 49304  87.9197 312.2966 0001846  88.1244 272.0101 13.20770231204733
ONEWEB-0379             
1 49305U 21090AC  25343.50456269  .00000148  00000+0  36589-3 0  9993
2 49305  87.8990 327.4964 0001855  88.4822 271.6520 13.14500819202649
ONEWEB-0380             
1 49306U 21090AD  25343.49151404  .00000065  00000+0  12968-3 0  9998
2 49306  87.9200 342.7201 0001639  94.1941 265.9379 13.19724349201407
ONEWEB-0381             
1 49307U 21090AE  25343.61482800  .00000064  00000+0  12657-3 0  9994
2 49307  87.9196 312.2448 0001746  91.3422 268.7911 13.20770489204807
ONEWEB-0382             
1 49308U 21090AF  25343.45067342  .00000076  00000+0  15503-3 0  9993
2 49308  87.9200 312.2732 0001850  92.6765 267.4580 13.20774179204774
