[{"OBJECT_NAME":"ONEWEB-0366","OBJECT_ID":"2021-090P","EPOCH":"2025-12-09T10:42:06.003648","MEAN_MOTION":13.14502926,"ECCENTRICITY":0.0001744,"INCLINATION":87.8981,"RA_OF_ASC_NODE":327.5215,"ARG_OF_PERICENTER":87.9837,"MEAN_ANOMALY":272.1493,"EPHEMERIS_TYPE":0,"CLASSIFICATION_TYPE":"U","NORAD_CAT_ID":49292,"ELEMENT_SET_NO":999,"REV_AT_EPOCH":20263,"BSTAR":-0.0004537692,"MEAN_MOTION_DOT":-1.55e-6,"MEAN_MOTION_DDOT":0},{"OBJECT_NAME":"ONEWEB-0367","OBJECT_ID":"2021-090Q","EPOCH":"2025-12-09T14:52:10.809984","MEAN_MOTION":13.20770922,"ECCENTRICITY":0.00018387,"INCLINATION":87.9202,"RA_OF_ASC_NODE":312.2415,"ARG_OF_PERICENTER":76.7835,"MEAN_ANOMALY":283.3504,"EPHEMERIS_TYPE":0,"CLASSIFICATION_TYPE":"U","NORAD_CAT_ID":49293,"ELEMENT_SET_NO":999,"REV_AT_EPOCH":20480,"BSTAR":0.00036415624,"MEAN_MOTION_DOT":1.61e-6,"MEAN_MOTION_DDOT":0},{"OBJECT_NAME":"ONEWEB-0368","OBJECT_ID":"2021-090R","EPOCH":"2025-12-09T10:35:22.429248","MEAN_MOTION":13.20770409,"ECCENTRICITY":0.00025511,"INCLINATION":87.9194,"RA_OF_ASC_NODE":312.3071,"ARG_OF_PERICENTER":92.3217,"MEAN_ANOMALY":267.8209,"EPHEMERIS_TYPE":0,"CLASSIFICATION_TYPE":"U","NORAD_CAT_ID":49294,"ELEMENT_SET_NO":999,"REV_AT_EPOCH":20593,"BSTAR":0.00011393133,"MEAN_MOTION_DOT":5.9e-7,"MEAN_MOTION_DDOT":0},{"OBJECT_NAME":"ONEWEB-0369","OBJECT_ID":"2021-090S","EPOCH":"2025-12-09T11:43:13.261152","MEAN_MOTION":13.19723738,"ECCENTRICITY":0.00018815,"INCLINATION":87.9197,"RA_OF_ASC_NODE":342.7238,"ARG_OF_PERICENTER":87.7016,"MEAN_ANOMALY":272.4332,"EPHEMERIS_TYPE":0,"CLASSIFICATION_TYPE":"U","NORAD_CAT_ID":49295,"ELEMENT_SET_NO":999,"REV_AT_EPOCH":20139,"BSTAR":0.00012022674,"MEAN_MOTION_DOT":6.1e-7,"MEAN_MOTION_DDOT":0},{"OBJECT_NAME":"ONEWEB-0370","OBJECT_ID":"2021-090T","EPOCH":"2025-12-09T15:05:48.585984","MEAN_MOTION":13.20770218,"ECCENTRICITY":0.00015885,"INCLINATION":87.9192,"RA_OF_ASC_NODE":312.2447,"ARG_OF_PERICENTER":75.9492,"MEAN_ANOMALY":284.1818,"EPHEMERIS_TYPE":0,"CLASSIFICATION_TYPE":"U","NORAD_CAT_ID":49296,"ELEMENT_SET_NO":999,"REV_AT_EPOCH":20484,"BSTAR":0.0002107187,"MEAN_MOTION_DOT":9.9e-7,"MEAN_MOTION_DDOT":0},{"OBJECT_NAME":"ONEWEB-0371","OBJECT_ID":"2021-090U","EPOCH":"2025-12-09T11:54:36.006048","MEAN_MOTION":13.19724122,"ECCENTRICITY":0.00017956,"INCLINATION":87.9199,"RA_OF_ASC_NODE":342.7096,"ARG_OF_PERICENTER":85.6067,"MEAN_ANOMALY":274.5271,"EPHEMERIS_TYPE":0,"CLASSIFICATION_TYPE":"U","NORAD_CAT_ID":49297,"ELEMENT_SET_NO":999,"REV_AT_EPOCH":20143,"BSTAR":0.00011830937,"MEAN_MOTION_DOT":6.0e-7,"MEAN_MOTION_DDOT":0},{"OBJECT_NAME":"ONEWEB-0372","OBJECT_ID":"2021-090V","EPOCH":"2025-12-09T14:49:41.236896","MEAN_MOTION":13.20770188,"ECCENTRICITY":0.00019242,"INCLINATION":87.919,"RA_OF_ASC_NODE":312.2468,"ARG_OF_PERICENTER":82.2885,"MEAN_ANOMALY":277.8466,"EPHEMERIS_TYPE":0,"CLASSIFICATION_TYPE":"U","NORAD_CAT_ID":49298,"ELEMENT_SET_NO":999,"REV_AT_EPOCH":20481,"BSTAR":0.00026326611,"MEAN_MOTION_DOT":1.2e-6,"MEAN_MOTION_DDOT":0},{"OBJECT_NAME":"ONEWEB-0373","OBJECT_ID":"2021-090W","EPOCH":"2025-12-09T10:01:14.632608","MEAN_MOTION":13.20774103,"ECCENTRICITY":0.00017063,"INCLINATION":87.9189,"RA_OF_ASC_NODE":312.2999,"ARG_OF_PERICENTER":85.36,"MEAN_ANOMALY":274.7728,"EPHEMERIS_TYPE":0,"CLASSIFICATION_TYPE":"U","NORAD_CAT_ID":49299,"ELEMENT_SET_NO":999,"REV_AT_EPOCH":20597,"BSTAR":0.00031926717,"MEAN_MOTION_DOT":1.43e-6,"MEAN_MOTION_DDOT":0},{"OBJECT_NAME":"ONEWEB-0374","OBJECT_ID":"2021-090X","EPOCH":"2025-12-09T12:13:24.986208","MEAN_MOTION":13.14504782,"ECCENTRICITY":0.00020489,"INCLINATION":87.899,"RA_OF_ASC_NODE":327.4866,"ARG_OF_PERICENTER":101.4268,"MEAN_ANOMALY":258.7092,"EPHEMERIS_TYPE":0,"CLASSIFICATION_TYPE":"U","NORAD_CAT_ID":49300,"ELEMENT_SET_NO":999,"REV_AT_EPOCH":20264,"BSTAR":3.0555624e-5,"MEAN_MOTION_DOT":2.4e-7,"MEAN_MOTION_DDOT":0},{"OBJECT_NAME":"ONEWEB-0375","OBJECT_ID":"2021-090Y","EPOCH":"2025-12-09T11:32:10.349376","MEAN_MOTION":13.20768481,"ECCENTRICITY":0.00016674,"INCLINATION":87.9188,"RA_OF_ASC_NODE":312.2678,"ARG_OF_PERICENTER":102.0655,"MEAN_ANOMALY":258.0665,"EPHEMERIS_TYPE":0,"CLASSIFICATION_TYPE":"U","NORAD_CAT_ID":49301,"ELEMENT_SET_NO":999,"REV_AT_EPOCH":20548,"BSTAR":0.00028776663,"MEAN_MOTION_DOT":1.3e-6,"MEAN_MOTION_DDOT":0},{"OBJECT_NAME":"ONEWEB-0376","OBJECT_ID":"2021-090Z","EPOCH":"2025-12-09T11:52:18.474528","MEAN_MOTION":13.19727108,"ECCENTRICITY":0.00019703,"INCLINATION":87.9205,"RA_OF_ASC_NODE":342.6974,"ARG_OF_PERICENTER":84.5309,"MEAN_ANOMALY":275.6048,"EPHEMERIS_TYPE":0,"CLASSIFICATION_TYPE":"U","NORAD_CAT_ID":49302,"ELEMENT_SET_NO":999,"REV_AT_EPOCH":20143,"BSTAR":0.00019187933,"MEAN_MOTION_DOT":9.0e-7,"MEAN_MOTION_DDOT":0},{"OBJECT_NAME":"ONEWEB-0377","OBJECT_ID":"2021-090AA","EPOCH":"2025-12-09T14:50:04.707456","MEAN_MOTION":13.20773704,"ECCENTRICITY":0.00015999,"INCLINATION":87.9199,"RA_OF_ASC_NODE":312.2412,"ARG_OF_PERICENTER":84.3755,"MEAN_ANOMALY":275.756,"EPHEMERIS_TYPE":0,"CLASSIFICATION_TYPE":"U","NORAD_CAT_ID":49303,"ELEMENT_SET_NO":999,"REV_AT_EPOCH":20549,"BSTAR":9.2677027e-5,"MEAN_MOTION_DOT":5.1e-7,"MEAN_MOTION_DDOT":0},{"OBJECT_NAME":"ONEWEB-0378","OBJECT_ID":"2021-090AB","EPOCH":"2025-12-09T09:54:39.103776","MEAN_MOTION":13.20770231,"ECCENTRICITY":0.00018464,"INCLINATION":87.9197,"RA_OF_ASC_NODE":312.2966,"ARG_OF_PERICENTER":88.1244,"MEAN_ANOMALY":272.0101,"EPHEMERIS_TYPE":0,"CLASSIFICATION_TYPE":"U","NORAD_CAT_ID":49304,"ELEMENT_SET_NO":999,"REV_AT_EPOCH":20473,"BSTAR":0.00021540722,"MEAN_MOTION_DOT":1.01e-6,"MEAN_MOTION_DDOT":0},{"OBJECT_NAME":"ONEWEB-0379","OBJECT_ID":"2021-090AC","EPOCH":"2025-12-09T12:06:34.216416","MEAN_MOTION":13.14500819,"ECCENTRICITY":0.00018557,"INCLINATION":87.899,"RA_OF_ASC_NODE":327.4964,"ARG_OF_PERICENTER":88.4822,"MEAN_ANOMALY":271.652,"EPHEMERIS_TYPE":0,"CLASSIFICATION_TYPE":"U","NORAD_CAT_ID":49305,"ELEMENT_SET_NO":999,"REV_AT_EPOCH":20264,"BSTAR":0.00036588664,"MEAN_MOTION_DOT":1.48e-6,"MEAN_MOTION_DDOT":0},{"OBJECT_NAME":"ONEWEB-0380","OBJECT_ID":"2021-090AD","EPOCH":"2025-12-09T11:47:46.813056","MEAN_MOTION":13.19724349,"ECCENTRICITY":0.00016393,"INCLINATION":87.92,"RA_OF_ASC_NODE":342.7201,"ARG_OF_PERICENTER":94.1941,"MEAN_ANOMALY":265.9379,"EPHEMERIS_TYPE":0,"CLASSIFICATION_TYPE":"U","NORAD_CAT_ID":49306,"ELEMENT_SET_NO":999,"REV_AT_EPOCH":20140,"BSTAR":0.00012968306,"MEAN_MOTION_DOT":6.5e-7,"MEAN_MOTION_DDOT":0},{"OBJECT_NAME":"ONEWEB-0381","OBJECT_ID":"2021-090AE","EPOCH":"2025-12-09T14:45:21.139200","MEAN_MOTION":13.20770489,"ECCENTRICITY":0.00017465,"INCLINATION":87.9196,"RA_OF_ASC_NODE":312.2448,"ARG_OF_PERICENTER":91.3422,"MEAN_ANOMALY":268.7911,"EPHEMERIS_TYPE":0,"CLASSIFICATION_TYPE":"U","NORAD_CAT_ID":49307,"ELEMENT_SET_NO":999,"REV_AT_EPOCH":20480,"BSTAR":0.00012656727,"MEAN_MOTION_DOT":6.4e-7,"MEAN_MOTION_DDOT":0},{"OBJECT_NAME":"ONEWEB-0382","OBJECT_ID":"2021-090AF","EPOCH":"2025-12-09T10:48:58.183488","MEAN_MOTION":13.20774179,"ECCENTRICITY":0.00018506,"INCLINATION":87.92,"RA_OF_ASC_NODE":312.2732,"ARG_OF_PERICENTER":92.6765,"MEAN_ANOMALY":267.458,"EPHEMERIS_TYPE":0,"CLASSIFICATION_TYPE":"U","NORAD_CAT_ID":49308,"ELEMENT_SET_NO":999,"REV_AT_EPOCH":20477,"BSTAR":0.00015503034,"MEAN_MOTION_DOT":7.6e-7,"MEAN_MOTION_DDOT":0}]
